{
    "links": {
        "self": "http://www.neowsapp.com/rest/v1/neo/3836909?api_key=iIulBulltgU6a56xZRHN4H3l9WmuAYTsLGpBGhQ2"
    },
    "id": "3836909",
    "neo_reference_id": "3836909",
    "name": "(2018 XX4)",
    "designation": "2018 XX4",
    "nasa_jpl_url": "http://ssd.jpl.nasa.gov/sbdb.cgi?sstr=3836909",
    "absolute_magnitude_h": 25.7,
    "estimated_diameter": {
        "kilometers": {
            "estimated_diameter_min": 0.0192555078,
            "estimated_diameter_max": 0.0430566244
        },
        "meters": {
            "estimated_diameter_min": 19.2555078188,
            "estimated_diameter_max": 43.0566244241
        },
        "miles": {
            "estimated_diameter_min": 0.0119648141,
            "estimated_diameter_max": 0.0267541378
        },
        "feet": {
            "estimated_diameter_min": 63.1742402722,
            "estimated_diameter_max": 141.2618956756
        }
    },
    "is_potentially_hazardous_asteroid": false,
    "close_approach_data": [
        {
            "close_approach_date": "2018-08-14",
            "close_approach_date_full": "2018-Aug-14 03:33",
            "epoch_date_close_approach": 1534217580000,
            "relative_velocity": {
                "kilometers_per_second": "12.1327626023",
                "kilometers_per_hour": "43677.9453682321",
                "miles_per_hour": "27139.7766650551"
            },
            "miss_distance": {
                "astronomical": "0.0749447168",
                "lunar": "29.1534948352",
                "kilometers": "11211570.001033216",
                "miles": "6966546.5555857408"
            },
            "orbiting_body": "Mars"
        },
        {
            "close_approach_date": "2018-11-30",
            "close_approach_date_full": "2018-Nov-30 15:22",
            "epoch_date_close_approach": 1543591320000,
            "relative_velocity": {
                "kilometers_per_second": "8.0384787224",
                "kilometers_per_hour": "28938.5234006407",
                "miles_per_hour": "17981.273054137"
            },
            "miss_distance": {
                "astronomical": "0.0465222005",
                "lunar": "18.0971359945",
                "kilometers": "6959622.102512935",
                "miles": "4324508.644371103"
            },
            "orbiting_body": "Earth"
        },
        {
            "close_approach_date": "2059-12-12",
            "close_approach_date_full": "2059-Dec-12 18:30",
            "epoch_date_close_approach": 2838479400000,
            "relative_velocity": {
                "kilometers_per_second": "10.8909789375",
                "kilometers_per_hour": "39207.5241751786",
                "miles_per_hour": "24362.0307854047"
            },
            "miss_distance": {
                "astronomical": "0.1306099342",
                "lunar": "50.8072644038",
                "kilometers": "19538967.957160154",
                "miles": "12140951.7051679652"
            },
            "orbiting_body": "Earth"
        }
    ],
    "orbital_data": {
        "orbit_id": "3",
        "orbit_determination_date": "2019-07-17 06:12:49",
        "first_observation_date": "2018-12-12",
        "last_observation_date": "2018-12-16",
        "data_arc_in_days": 4,
        "observations_used": 25,
        "orbit_uncertainty": "8",
        "minimum_orbit_intersection": ".01134",
        "jupiter_tisserand_invariant": "3.834",
        "epoch_osculation": "2458466.5",
        "eccentricity": ".4730989447716851",
        "semi_major_axis": "1.873817137613153",
        "inclination": "1.062382094951481",
        "ascending_node_longitude": "89.08816102586323",
        "orbital_period": "936.8913662193792",
        "perihelion_distance": ".9873162271132709",
        "perihelion_argument": "312.9031796208172",
        "aphelion_distance": "2.760318048113036",
        "perihelion_time": "2458433.001113394014",
        "mean_anomaly": "12.87192903358566",
        "mean_motion": ".3842494583472378",
        "equinox": "J2000",
        "orbit_class": {
            "orbit_class_type": "APO",
            "orbit_class_description": "Near-Earth asteroid orbits which cross the Earth’s orbit similar to that of 1862 Apollo",
            "orbit_class_range": "a (semi-major axis) > 1.0 AU; q (perihelion) < 1.017 AU"
        }
    },
    "is_sentry_object": false
}